CUBEBUG-2 (LO-74)       
1 39440U 13066AA  26184.34007842  .00005361  00000+0  49417-3 0  9997
2 39440  97.8916 133.3880 0056571 335.6744  24.1807 14.93897760679406
FUNCUBE-1 (AO-73)       
1 39444U 13066AE  26183.83251641  .00008238  00000+0  50720-3 0  9997
2 39444  97.8285 155.6072 0037315 147.9891 212.3615 15.09682031682022
UWE-3                   
1 39446U 13066AG  26183.85568661  .00003935  00000+0  33855-3 0  9993
2 39446  97.8709 140.0374 0047188 267.5766  92.0052 14.97140347679925
UNISAT-6                
1 40012U 14033C   26183.66405107  .00002775  00000+0  30037-3 0  9993
2 40012  97.7898 336.1049 0045235  19.2407 341.0506 14.88321393648464
DUCHIFAT-1              
1 40021U 14033M   26183.10087887  .00143832  00000+0  12875-2 0  9992
2 40021  98.0445 244.3920 0000096 180.5510 179.5749 15.67889029658082
QB50P1                  
1 40025U 14033R   26183.76871566  .00009620  00000+0  46935-3 0  9994
2 40025  98.0961 196.0094 0009437 162.0321 198.1247 15.18500631655393
LILACSAT-2              
1 40908U 15049K   26184.65208703  .00019791  00000+0  32993-3 0  9997
2 40908  97.4621 222.1234 0007294 177.3895 182.7397 15.52001002598308
FOX-1A (AO-85)          
1 40967U 15058D   26183.84648019  .00002755  00000+0  25058-3 0  9996
2 40967  64.7736 230.3176 0131468  50.5060 310.7590 14.91035738115904
CAS-2T & KS-1Q          
1 41847U 16066G   26183.68531960  .00001723  00000+0  24772-3 0  9998
2 41847  98.3817 259.2443 0342791  82.6153 281.3851 14.44744917507030
RADFXSAT (FOX-1B)       
1 43017U 17073E   26183.15636973  .00007671  00000+0  33553-3 0  9995
2 43017  97.4681  50.0656 0148185 277.0157  81.4241 15.12917223467651
DIWATA-2B               
1 43678U 18084H   26184.64137843  .00002475  00000+0  20124-3 0  9995
2 43678  98.1203  21.5680 0013113 119.3504 240.9030 15.00524271418689
ES'HAIL 2               
1 43700U 18090A   26183.85286852  .00000155  00000+0  00000+0 0  9995
2 43700   0.0179  35.7111 0002256 101.6332 116.3646  1.00273206 27830
FOX-1CLIFF (AO-95)      
1 43770U 18099N   26183.60967049  .00011484  00000+0  43514-3 0  9996
2 43770  97.4375 243.8014 0006930 294.3124  65.7391 15.27038658415571
ITASAT                  
1 43786U 18099AE  26183.36904435  .00008093  00000+0  38656-3 0  9999
2 43786  97.4016 234.5787 0010879 302.6059  57.4125 15.19245229415210
JY1SAT (JO-97)          
1 43803U 18099AX  26183.62196427  .00017868  00000+0  54208-3 0  9993
2 43803  97.4118 246.5140 0005650 198.6681 161.4355 15.34152879415995
UWE-4                   
1 43880U 18111E   26183.74326686  .00032995  00000+0  65109-3 0  9998
2 43880  97.5847 112.8616 0004412 254.2449 105.8314 15.47102682413186
TIANYAN 01              
1 44881U 19093C   26184.53619795  .00000567  00000+0  69953-4 0  9996
2 44881  97.7529 256.3696 0014534  38.1122 322.1119 14.86543846353848
RS-44 & BREEZE-KM R/B   
1 44909U 19096E   26183.79775669  .00000010  00000+0 -12503-4 0  9993
2 44909  82.5226 329.3312 0218534 107.8328 254.6742 12.79748942304345
SALSAT                  
1 46495U 20068K   26183.25417132  .00008637  00000+0  29987-3 0  9990
2 46495  97.8847 187.2381 0008038 243.7769 116.2645 15.30013367317667
XW-3 (CAS-9)            
1 50466U 21131B   26184.64571399  .00000537  00000+0  17945-3 0  9997
2 50466  98.4992 276.9468 0005188  59.1467 301.0231 14.41372876237487
GREENCUBE (IO-117)      
1 53109U 22080E   26181.72466670 -.00000003  00000+0  00000+0 0  9998
2 53109  70.1437 293.5372 0008958 286.6703  73.2973  6.42583253 92937
UMKA 1 (RS40S)          
1 57172U 23091G   26183.81830412  .00007503  00000+0  34053-3 0  9996
2 57172  97.5039 242.4563 0014057  69.3438 290.9303 15.21002545166388
CUBESX-HSE 3 (RS42S)    
1 57178U 23091N   26183.79051608  .00014786  00000+0  48570-3 0  9991
2 57178  97.5082 249.5780 0010995  45.1309 315.0823 15.31612828166813
MONITOR-3 (RS58S)       
1 57180U 23091Q   26183.84979442  .00013323  00000+0  48670-3 0  9992
2 57180  97.5073 247.4131 0012254  51.4417 308.7918 15.28162557166687
MONITOR-4 (RS57S)       
1 57182U 23091S   26183.82798280  .00012267  00000+0  44726-3 0  9995
2 57182  97.5067 247.3631 0012270  51.9563 308.2781 15.28246854166687
MONITOR-2 (RS39S)       
1 57184U 23091U   26183.79346586  .00005781  00000+0  27855-3 0  9998
2 57184  97.5060 241.9761 0012418  63.6128 296.6380 15.19056795166326
SVYATOBOR 1 (RS60S)     
1 57187U 23091X   26183.78920666  .00010451  00000+0  39789-3 0  9996
2 57187  97.5080 247.6943 0009999  46.5858 313.6212 15.26882485166691
VIZARD-METEO (RS38S)    
1 57189U 23091Z   26183.84519358  .00019557  00000+0  54974-3 0  9996
2 57189  97.5083 253.6485 0006892  27.0147 333.1454 15.36531076167096
POLYTECH-UNIVERSE 3 (R*)
1 57191U 23091AB  26183.81856846  .00006479  00000+0  30934-3 0  9991
2 57191  97.5036 241.5053 0016918  77.5035 282.8091 15.19267737166323
UTMN 2 (RS27S)          
1 57203U 23091AP  26183.79964298  .00014623  00000+0  46859-3 0  9996
2 57203  97.5079 251.2400 0008062  34.8491 325.3277 15.32437868166936
